{
  "type": "FeatureCollection",
  "name": "East Bay neighborhoods",
  "source": "Merge (hand-drawn, approximate)",
  "license": "CC0-1.0",
  "description": "Approximate neighborhood outlines for Alameda, Oakland and Berkeley, drawn by Merge from general knowledge of streets, BART stations, freeways and shoreline (no third-party geometry). Used only to label commute areas. Features are in priority order: where two outlines overlap, the earlier one keeps the overlap. Each outline is clipped to its city's Census TIGER limits when loaded, so edges along city lines and water may overshoot.",
  "features": [
    {"type": "Feature", "properties": {"name": "Park Street", "city": "Alameda"},
     "geometry": {"type": "Polygon", "coordinates": [[[-122.2530, 37.7585], [-122.2435, 37.7730], [-122.2420, 37.7800], [-122.2310, 37.7800], [-122.2350, 37.7730], [-122.2440, 37.7568], [-122.2530, 37.7585]]]}},
    {"type": "Feature", "properties": {"name": "West End", "city": "Alameda"},
     "geometry": {"type": "Polygon", "coordinates": [[[-122.2945, 37.7510], [-122.2945, 37.8000], [-122.2715, 37.8000], [-122.2715, 37.7510], [-122.2945, 37.7510]]]}},
    {"type": "Feature", "properties": {"name": "Alameda Point", "city": "Alameda"},
     "geometry": {"type": "Polygon", "coordinates": [[[-122.3400, 37.7500], [-122.3400, 37.8000], [-122.2945, 37.8000], [-122.2945, 37.7510], [-122.3400, 37.7500]]]}},
    {"type": "Feature", "properties": {"name": "Gold Coast", "city": "Alameda"},
     "geometry": {"type": "Polygon", "coordinates": [[[-122.2715, 37.7663], [-122.2600, 37.7653], [-122.2490, 37.7645], [-122.2530, 37.7585], [-122.2637, 37.7605], [-122.2637, 37.7510], [-122.2715, 37.7510], [-122.2715, 37.7663]]]}},
    {"type": "Feature", "properties": {"name": "Central Alameda", "city": "Alameda"},
     "geometry": {"type": "Polygon", "coordinates": [[[-122.2715, 37.7663], [-122.2715, 37.8000], [-122.2420, 37.8000], [-122.2420, 37.7800], [-122.2435, 37.7730], [-122.2490, 37.7645], [-122.2600, 37.7653], [-122.2715, 37.7663]]]}},
    {"type": "Feature", "properties": {"name": "South Shore", "city": "Alameda"},
     "geometry": {"type": "Polygon", "coordinates": [[[-122.2637, 37.7605], [-122.2530, 37.7585], [-122.2440, 37.7568], [-122.2420, 37.7510], [-122.2637, 37.7510], [-122.2637, 37.7605]]]}},
    {"type": "Feature", "properties": {"name": "East End", "city": "Alameda"},
     "geometry": {"type": "Polygon", "coordinates": [[[-122.2310, 37.7800], [-122.2350, 37.7730], [-122.2440, 37.7568], [-122.2420, 37.7510], [-122.2150, 37.7510], [-122.2150, 37.7800], [-122.2310, 37.7800]]]}},
    {"type": "Feature", "properties": {"name": "Bay Farm Island", "city": "Alameda"},
     "geometry": {"type": "Polygon", "coordinates": [[[-122.2700, 37.7500], [-122.2150, 37.7500], [-122.2150, 37.7425], [-122.2450, 37.7405], [-122.2700, 37.7385], [-122.2700, 37.7500]]]}},
    {"type": "Feature", "properties": {"name": "Harbor Bay", "city": "Alameda"},
     "geometry": {"type": "Polygon", "coordinates": [[[-122.2700, 37.7385], [-122.2450, 37.7405], [-122.2150, 37.7425], [-122.2150, 37.7150], [-122.2700, 37.7150], [-122.2700, 37.7385]]]}},
    {"type": "Feature", "properties": {"name": "Jack London Square", "city": "Oakland"},
     "geometry": {"type": "Polygon", "coordinates": [[[-122.2870, 37.7900], [-122.2870, 37.7995], [-122.2830, 37.8010], [-122.2748, 37.7980], [-122.2650, 37.7945], [-122.2620, 37.7935], [-122.2620, 37.7880], [-122.2870, 37.7900]]]}},
    {"type": "Feature", "properties": {"name": "Old Oakland", "city": "Oakland"},
     "geometry": {"type": "Polygon", "coordinates": [[[-122.2830, 37.8010], [-122.2748, 37.7980], [-122.2735, 37.8003], [-122.2810, 37.8026], [-122.2830, 37.8010]]]}},
    {"type": "Feature", "properties": {"name": "Chinatown", "city": "Oakland"},
     "geometry": {"type": "Polygon", "coordinates": [[[-122.2748, 37.7980], [-122.2650, 37.7945], [-122.2620, 37.7935], [-122.2625, 37.7988], [-122.2735, 37.8003], [-122.2748, 37.7980]]]}},
    {"type": "Feature", "properties": {"name": "Lake Merritt", "city": "Oakland"},
     "geometry": {"type": "Polygon", "coordinates": [[[-122.2625, 37.7988], [-122.2635, 37.8055], [-122.2612, 37.8100], [-122.2560, 37.8108], [-122.2502, 37.8095], [-122.2490, 37.8055], [-122.2520, 37.7990], [-122.2580, 37.7958], [-122.2625, 37.7988]]]}},
    {"type": "Feature", "properties": {"name": "Downtown", "city": "Oakland"},
     "geometry": {"type": "Polygon", "coordinates": [[[-122.2810, 37.8026], [-122.2735, 37.8003], [-122.2625, 37.7988], [-122.2635, 37.8055], [-122.2698, 37.8065], [-122.2795, 37.8100], [-122.2810, 37.8026]]]}},
    {"type": "Feature", "properties": {"name": "Uptown", "city": "Oakland"},
     "geometry": {"type": "Polygon", "coordinates": [[[-122.2795, 37.8100], [-122.2698, 37.8065], [-122.2635, 37.8055], [-122.2612, 37.8100], [-122.2605, 37.8160], [-122.2650, 37.8165], [-122.2770, 37.8165], [-122.2795, 37.8100]]]}},
    {"type": "Feature", "properties": {"name": "Koreatown/Northgate", "city": "Oakland"},
     "geometry": {"type": "Polygon", "coordinates": [[[-122.2770, 37.8165], [-122.2650, 37.8165], [-122.2605, 37.8160], [-122.2595, 37.8205], [-122.2580, 37.8270], [-122.2715, 37.8290], [-122.2725, 37.8255], [-122.2770, 37.8165]]]}},
    {"type": "Feature", "properties": {"name": "West Oakland", "city": "Oakland"},
     "geometry": {"type": "Polygon", "coordinates": [[[-122.2870, 37.7995], [-122.2830, 37.8010], [-122.2810, 37.8026], [-122.2795, 37.8100], [-122.2770, 37.8165], [-122.2725, 37.8255], [-122.2850, 37.8285], [-122.2960, 37.8300], [-122.3100, 37.8200], [-122.3100, 37.8000], [-122.2950, 37.7960], [-122.2870, 37.7995]]]}},
    {"type": "Feature", "properties": {"name": "Adams Point", "city": "Oakland"},
     "geometry": {"type": "Polygon", "coordinates": [[[-122.2612, 37.8100], [-122.2605, 37.8160], [-122.2595, 37.8205], [-122.2585, 37.8195], [-122.2490, 37.8135], [-122.2502, 37.8095], [-122.2560, 37.8108], [-122.2612, 37.8100]]]}},
    {"type": "Feature", "properties": {"name": "Piedmont Avenue", "city": "Oakland"},
     "geometry": {"type": "Polygon", "coordinates": [[[-122.2595, 37.8205], [-122.2580, 37.8270], [-122.2560, 37.8360], [-122.2480, 37.8355], [-122.2400, 37.8300], [-122.2440, 37.8180], [-122.2490, 37.8135], [-122.2585, 37.8195], [-122.2595, 37.8205]]]}},
    {"type": "Feature", "properties": {"name": "Grand Lake", "city": "Oakland"},
     "geometry": {"type": "Polygon", "coordinates": [[[-122.2502, 37.8095], [-122.2490, 37.8135], [-122.2440, 37.8180], [-122.2340, 37.8200], [-122.2340, 37.8110], [-122.2385, 37.8065], [-122.2440, 37.8045], [-122.2490, 37.8055], [-122.2502, 37.8095]]]}},
    {"type": "Feature", "properties": {"name": "Temescal", "city": "Oakland"},
     "geometry": {"type": "Polygon", "coordinates": [[[-122.2715, 37.8290], [-122.2580, 37.8270], [-122.2560, 37.8360], [-122.2585, 37.8380], [-122.2595, 37.8440], [-122.2720, 37.8440], [-122.2715, 37.8290]]]}},
    {"type": "Feature", "properties": {"name": "Rockridge", "city": "Oakland"},
     "geometry": {"type": "Polygon", "coordinates": [[[-122.2595, 37.8440], [-122.2585, 37.8380], [-122.2560, 37.8360], [-122.2480, 37.8355], [-122.2400, 37.8300], [-122.2335, 37.8300], [-122.2320, 37.8460], [-122.2330, 37.8580], [-122.2480, 37.8580], [-122.2600, 37.8530], [-122.2595, 37.8440]]]}},
    {"type": "Feature", "properties": {"name": "North Oakland", "city": "Oakland"},
     "geometry": {"type": "Polygon", "coordinates": [[[-122.2960, 37.8300], [-122.2850, 37.8285], [-122.2725, 37.8255], [-122.2715, 37.8290], [-122.2720, 37.8440], [-122.2595, 37.8440], [-122.2600, 37.8530], [-122.2700, 37.8560], [-122.2960, 37.8560], [-122.2960, 37.8300]]]}},
    {"type": "Feature", "properties": {"name": "Eastlake", "city": "Oakland"},
     "geometry": {"type": "Polygon", "coordinates": [[[-122.2580, 37.7958], [-122.2520, 37.7990], [-122.2490, 37.8055], [-122.2440, 37.8045], [-122.2385, 37.8065], [-122.2340, 37.8046], [-122.2450, 37.7880], [-122.2580, 37.7880], [-122.2620, 37.7935], [-122.2625, 37.7988], [-122.2580, 37.7958]]]}},
    {"type": "Feature", "properties": {"name": "San Antonio", "city": "Oakland"},
     "geometry": {"type": "Polygon", "coordinates": [[[-122.2340, 37.8046], [-122.2300, 37.8030], [-122.2250, 37.8010], [-122.2410, 37.7710], [-122.2500, 37.7800], [-122.2450, 37.7880], [-122.2340, 37.8046]]]}},
    {"type": "Feature", "properties": {"name": "Fruitvale", "city": "Oakland"},
     "geometry": {"type": "Polygon", "coordinates": [[[-122.2250, 37.8010], [-122.2170, 37.7980], [-122.2010, 37.7905], [-122.2275, 37.7650], [-122.2330, 37.7640], [-122.2410, 37.7710], [-122.2250, 37.8010]]]}},
    {"type": "Feature", "properties": {"name": "Glenview", "city": "Oakland"},
     "geometry": {"type": "Polygon", "coordinates": [[[-122.2385, 37.8065], [-122.2340, 37.8110], [-122.2340, 37.8160], [-122.2230, 37.8130], [-122.2240, 37.8007], [-122.2300, 37.8030], [-122.2385, 37.8065]]]}},
    {"type": "Feature", "properties": {"name": "Dimond", "city": "Oakland"},
     "geometry": {"type": "Polygon", "coordinates": [[[-122.2240, 37.8007], [-122.2230, 37.8130], [-122.2100, 37.8115], [-122.2085, 37.7940], [-122.2170, 37.7980], [-122.2240, 37.8007]]]}},
    {"type": "Feature", "properties": {"name": "Laurel", "city": "Oakland"},
     "geometry": {"type": "Polygon", "coordinates": [[[-122.2085, 37.7940], [-122.2100, 37.8115], [-122.1980, 37.8150], [-122.1960, 37.8010], [-122.1960, 37.7882], [-122.2010, 37.7905], [-122.2085, 37.7940]]]}},
    {"type": "Feature", "properties": {"name": "Montclair", "city": "Oakland"},
     "geometry": {"type": "Polygon", "coordinates": [[[-122.2340, 37.8200], [-122.2320, 37.8460], [-122.2150, 37.8460], [-122.2000, 37.8350], [-122.1980, 37.8150], [-122.2100, 37.8115], [-122.2230, 37.8130], [-122.2340, 37.8160], [-122.2340, 37.8200]]]}},
    {"type": "Feature", "properties": {"name": "Coliseum", "city": "Oakland"},
     "geometry": {"type": "Polygon", "coordinates": [[[-122.2180, 37.7650], [-122.2140, 37.7690], [-122.1960, 37.7560], [-122.1700, 37.7340], [-122.1500, 37.7240], [-122.1500, 37.7150], [-122.1850, 37.7300], [-122.2050, 37.7400], [-122.2200, 37.7560], [-122.2180, 37.7650]]]}},
    {"type": "Feature", "properties": {"name": "East Oakland", "city": "Oakland"},
     "geometry": {"type": "Polygon", "coordinates": [[[-122.2275, 37.7650], [-122.2010, 37.7905], [-122.1860, 37.7835], [-122.1700, 37.7720], [-122.1500, 37.7570], [-122.1350, 37.7450], [-122.1200, 37.7350], [-122.1200, 37.7200], [-122.1500, 37.7240], [-122.1700, 37.7340], [-122.1960, 37.7560], [-122.2140, 37.7690], [-122.2180, 37.7650], [-122.2275, 37.7650]]]}},
    {"type": "Feature", "properties": {"name": "Oakland Hills", "city": "Oakland"},
     "geometry": {"type": "Polygon", "coordinates": [[[-122.2480, 37.8580], [-122.2330, 37.8580], [-122.2320, 37.8460], [-122.2150, 37.8460], [-122.2000, 37.8350], [-122.1980, 37.8150], [-122.1960, 37.8010], [-122.1960, 37.7882], [-122.1860, 37.7835], [-122.1700, 37.7720], [-122.1500, 37.7570], [-122.1350, 37.7450], [-122.1200, 37.7350], [-122.1000, 37.7500], [-122.1500, 37.8100], [-122.2000, 37.8650], [-122.2400, 37.8900], [-122.2480, 37.8580]]]}},
    {"type": "Feature", "properties": {"name": "UC Berkeley", "city": "Berkeley"},
     "geometry": {"type": "Polygon", "coordinates": [[[-122.2665, 37.8690], [-122.2665, 37.8748], [-122.2560, 37.8755], [-122.2470, 37.8770], [-122.2440, 37.8730], [-122.2470, 37.8690], [-122.2665, 37.8690]]]}},
    {"type": "Feature", "properties": {"name": "Downtown", "city": "Berkeley"},
     "geometry": {"type": "Polygon", "coordinates": [[[-122.2740, 37.8640], [-122.2740, 37.8740], [-122.2665, 37.8748], [-122.2665, 37.8640], [-122.2740, 37.8640]]]}},
    {"type": "Feature", "properties": {"name": "Southside", "city": "Berkeley"},
     "geometry": {"type": "Polygon", "coordinates": [[[-122.2665, 37.8690], [-122.2470, 37.8690], [-122.2480, 37.8630], [-122.2665, 37.8630], [-122.2665, 37.8690]]]}},
    {"type": "Feature", "properties": {"name": "Elmwood", "city": "Berkeley"},
     "geometry": {"type": "Polygon", "coordinates": [[[-122.2600, 37.8630], [-122.2480, 37.8630], [-122.2440, 37.8530], [-122.2440, 37.8470], [-122.2600, 37.8470], [-122.2600, 37.8630]]]}},
    {"type": "Feature", "properties": {"name": "Claremont", "city": "Berkeley"},
     "geometry": {"type": "Polygon", "coordinates": [[[-122.2480, 37.8630], [-122.2300, 37.8660], [-122.2300, 37.8470], [-122.2440, 37.8470], [-122.2440, 37.8530], [-122.2480, 37.8630]]]}},
    {"type": "Feature", "properties": {"name": "South Berkeley", "city": "Berkeley"},
     "geometry": {"type": "Polygon", "coordinates": [[[-122.2915, 37.8640], [-122.2740, 37.8640], [-122.2665, 37.8640], [-122.2665, 37.8630], [-122.2600, 37.8630], [-122.2600, 37.8450], [-122.2900, 37.8450], [-122.2915, 37.8640]]]}},
    {"type": "Feature", "properties": {"name": "West Berkeley", "city": "Berkeley"},
     "geometry": {"type": "Polygon", "coordinates": [[[-122.2900, 37.8450], [-122.2915, 37.8640], [-122.2935, 37.8700], [-122.2975, 37.8920], [-122.3350, 37.8920], [-122.3350, 37.8450], [-122.2900, 37.8450]]]}},
    {"type": "Feature", "properties": {"name": "North Berkeley", "city": "Berkeley"},
     "geometry": {"type": "Polygon", "coordinates": [[[-122.2935, 37.8700], [-122.2740, 37.8705], [-122.2740, 37.8740], [-122.2665, 37.8748], [-122.2560, 37.8755], [-122.2610, 37.8790], [-122.2650, 37.8850], [-122.2700, 37.8920], [-122.2975, 37.8920], [-122.2935, 37.8700]]]}},
    {"type": "Feature", "properties": {"name": "Berkeley Hills", "city": "Berkeley"},
     "geometry": {"type": "Polygon", "coordinates": [[[-122.2700, 37.8920], [-122.2650, 37.8850], [-122.2610, 37.8790], [-122.2560, 37.8755], [-122.2470, 37.8770], [-122.2440, 37.8730], [-122.2470, 37.8690], [-122.2480, 37.8630], [-122.2300, 37.8660], [-122.2150, 37.8750], [-122.2300, 37.9050], [-122.2700, 37.9050], [-122.2700, 37.8920]]]}}
  ]
}
